[
    {
        "subcategories": "Subcategory",
        "diagnosis": "Schizoprenia:",
        "organization": "SA Clubhouse ",
        "streetAddress": "1234 Citizen's Pkwy, ",
        "city": "San Antonio, ", 
        "state": "TX",
        "zip": "78229",
        "phone": "(210) 798-1619"
}, 

    {

       "subcategories": "Subcategory",
        "diagnosis": "Schizoprenia:",
        "organization": "SA Clubhouse ",
        "streetAddress": "1234 Citizen's Pkwy, ",
        "city": "San Antonio, ", 
        "state": "TX",
        "zip": "78229",
        "phone": "(210) 798-1619"
    }, {
        "subcategories": "Subcategory",
        "diagnosis": "Schizoprenia:",
        "organization": "SA Clubhouse ",
        "streetAddress": "1234 Citizen's Pkwy, ",
        "city": "San Antonio, ", 
        "state": "TX",
        "zip": "78229",
        "phone": "(210) 798-1619"
    }, {
        "subcategories": "Subcategory",
        "diagnosis": "Schizoprenia:",
        "organization": "SA Clubhouse ",
        "streetAddress": "1234 Citizen's Pkwy, ",
        "city": "San Antonio, ", 
        "state": "TX",
        "zip": "78229",
        "phone": "(210) 798-1619"
    }, {
        "subcategories": "Subcategory",
        "diagnosis": "Schizoprenia:",
        "organization": "SA Clubhouse ",
        "streetAddress": "1234 Citizen's Pkwy, ",
        "city": "San Antonio, ", 
        "state": "TX",
        "zip": "78229",
        "phone": "(210) 798-1619"
    }, {
        "subcategories": "Subcategory",
        "diagnosis": "Schizoprenia:",
        "organization": "SA Clubhouse ",
        "streetAddress": "1234 Citizen's Pkwy, ",
        "city": "San Antonio, ", 
        "state": "TX",
        "zip": "78229",
        "phone": "(210) 798-1619"
    }, {
        "subcategories": "Subcategory",
        "diagnosis": "Schizoprenia:",
        "organization": "SA Clubhouse ",
        "streetAddress": "1234 Citizen's Pkwy, ",
        "city": "San Antonio, ", 
        "state": "TX",
        "zip": "78229",
        "phone": "(210) 798-1619"
    }, {
        "subcategories": "Subcategory",
        "diagnosis": "Schizoprenia:",
        "organization": "SA Clubhouse ",
        "streetAddress": "1234 Citizen's Pkwy, ",
        "city": "San Antonio, ", 
        "state": "TX",
        "zip": "78229",
        "phone": "(210) 798-1619"
    }
]